$$SOE
2461302.500000000, A.D. 2026-Sep-19 00:00:00.0000, -4.199773069049824E+08, -6.036198293972415E+07, 2.334946586628272E+07,
2461309.500000000, A.D. 2026-Sep-26 00:00:00.0000, -4.176123219526953E+08, -6.984915463858339E+07, 2.309055137953477E+07,
2461316.500000000, A.D. 2026-Oct-03 00:00:00.0000, -4.149814523342985E+08, -7.929180398294842E+07, 2.281693440451913E+07,
2461323.500000000, A.D. 2026-Oct-10 00:00:00.0000, -4.120846132202950E+08, -8.868358638786682E+07, 2.252869247483766E+07,
2461330.500000000, A.D. 2026-Oct-17 00:00:00.0000, -4.089218117916383E+08, -9.801808818946281E+07, 2.222590930587094E+07,
2461337.500000000, A.D. 2026-Oct-24 00:00:00.0000, -4.054931510481663E+08, -1.072888241132751E+08, 2.190867504099708E+07,
2461344.500000000, A.D. 2026-Oct-31 00:00:00.0000, -4.017988338191756E+08, -1.164892349480098E+08, 2.157708649192043E+07,
2461351.500000000, A.D. 2026-Nov-07 00:00:00.0000, -3.978391666482927E+08, -1.256126853608650E+08, 2.123124734875257E+07,
2461358.500000000, A.D. 2026-Nov-14 00:00:00.0000, -3.936145633631318E+08, -1.346524609782394E+08, 2.087126841466734E+07,
2461365.500000000, A.D. 2026-Nov-21 00:00:00.0000, -3.891255501528104E+08, -1.436017640627562E+08, 2.049726808771541E+07,
2461372.500000000, A.D. 2026-Nov-28 00:00:00.0000, -3.843727731643404E+08, -1.524537108099906E+08, 2.010937293621443E+07,
2461379.500000000, A.D. 2026-Dec-05 00:00:00.0000, -3.793570050138822E+08, -1.612013309377483E+08, 1.970771798304492E+07,
2461386.500000000, A.D. 2026-Dec-12 00:00:00.0000, -3.740791500624266E+08, -1.698375664728320E+08, 1.929244693902747E+07,
2461393.500000000, A.D. 2026-Dec-19 00:00:00.0000, -3.685402503550632E+08, -1.783552697464317E+08, 1.886371255980604E+07,
2461400.500000000, A.D. 2026-Dec-26 00:00:00.0000, -3.627414923785203E+08, -1.867472014877262E+08, 1.842167706891979E+07,
2461407.500000000, A.D. 2027-Jan-02 00:00:00.0000, -3.566842143758231E+08, -1.950060292313606E+08, 1.796651260673279E+07,
2461414.500000000, A.D. 2027-Jan-09 00:00:00.0000, -3.503699141172457E+08, -2.031243260451388E+08, 1.749840169680438E+07,
2461421.500000000, A.D. 2027-Jan-16 00:00:00.0000, -3.438002571083903E+08, -2.110945695975283E+08, 1.701753772780414E+07,
2461428.500000000, A.D. 2027-Jan-23 00:00:00.0000, -3.369770852054045E+08, -2.189091416356842E+08, 1.652412544401157E+07,
2461435.500000000, A.D. 2027-Jan-30 00:00:00.0000, -3.299024254656309E+08, -2.265603279557099E+08, 1.601838142365728E+07,
2461442.500000000, A.D. 2027-Feb-06 00:00:00.0000, -3.225784988246971E+08, -2.340403185613812E+08, 1.550053453421223E+07,
2461449.500000000, A.D. 2027-Feb-13 00:00:00.0000, -3.150077290743691E+08, -2.413412068294674E+08, 1.497082650663093E+07,
2461456.500000000, A.D. 2027-Feb-20 00:00:00.0000, -3.071927545154151E+08, -2.484549885126926E+08, 1.442951278048290E+07,
2461463.500000000, A.D. 2027-Feb-27 00:00:00.0000, -2.991364408968180E+08, -2.553735638391148E+08, 1.387686322878370E+07,
2461470.500000000, A.D. 2027-Mar-06 00:00:00.0000, -2.908418926287991E+08, -2.620887408364450E+08, 1.331316264228584E+07,
2461477.500000000, A.D. 2027-Mar-13 00:00:00.0000, -2.823124638732212E+08, -2.685922378881342E+08, 1.273871128689195E+07,
2461484.500000000, A.D. 2027-Mar-20 00:00:00.0000, -2.735517706425646E+08, -2.748756864175459E+08, 1.215382556877206E+07,
2461491.500000000, A.D. 2027-Mar-27 00:00:00.0000, -2.645637037060699E+08, -2.809306343157949E+08, 1.155883874276775E+07,
2461498.500000000, A.D. 2027-Apr-03 00:00:00.0000, -2.553524420984284E+08, -2.867485502318246E+08, 1.095410164034261E+07,
2461505.500000000, A.D. 2027-Apr-10 00:00:00.0000, -2.459224671639328E+08, -2.923208287760247E+08, 1.033998341196378E+07,
2461512.500000000, A.D. 2027-Apr-17 00:00:00.0000, -2.362785771020392E+08, -2.976387967295988E+08, 9.716872279050693E+06,
2461519.500000000, A.D. 2027-Apr-24 00:00:00.0000, -2.264259019159528E+08, -3.026937204041542E+08, 9.085176281015009E+06,
2461526.500000000, A.D. 2027-May-01 00:00:00.0000, -2.163699184380931E+08, -3.074768142110025E+08, 8.445323989518985E+06,
2461533.500000000, A.D. 2027-May-08 00:00:00.0000, -2.061164650908226E+08, -3.119792497835217E+08, 7.797765219702348E+06,
2461540.500000000, A.D. 2027-May-15 00:00:00.0000, -1.956717578357288E+08, -3.161921647940506E+08, 7.142971949700952E+06,
2461547.500000000, A.D. 2027-May-22 00:00:00.0000, -1.850424088202138E+08, -3.201066741554207E+08, 6.481439375376344E+06,
2461554.500000000, A.D. 2027-May-29 00:00:00.0000, -1.742354442990962E+08, -3.237138851798199E+08, 5.813686667116866E+06,
2461561.500000000, A.D. 2027-Jun-05 00:00:00.0000, -1.632583208685101E+08, -3.270049136720157E+08, 5.140257597754776E+06,
2461568.500000000, A.D. 2027-Jun-12 00:00:00.0000, -1.521189419274158E+08, -3.299709006356544E+08, 4.461721254680350E+06,
2461575.500000000, A.D. 2027-Jun-19 00:00:00.0000, -1.408256745900011E+08, -3.326030306398347E+08, 3.778672782959610E+06,
2461582.500000000, A.D. 2027-Jun-26 00:00:00.0000, -1.293873666455898E+08, -3.348925522202873E+08, 3.091734104310915E+06,
2461589.500000000, A.D. 2027-Jul-03 00:00:00.0000, -1.178133632924509E+08, -3.368308004195152E+08, 2.401554591156617E+06,
2461596.500000000, A.D. 2027-Jul-10 00:00:00.0000, -1.061135234489848E+08, -3.384092215678505E+08, 1.708811682644814E+06,
2461603.500000000, A.D. 2027-Jul-17 00:00:00.0000, -9.429823542704590E+07, -3.396194004494840E+08, 1.014211424720705E+06,
2461610.500000000, A.D. 2027-Jul-24 00:00:00.0000, -8.237843161046202E+07, -3.404530900120247E+08, 3.184889022471905E+05,
2461617.500000000, A.D. 2027-Jul-31 00:00:00.0000, -7.036560150296263E+07, -3.409022434677456E+08, -3.775914690950960E+05,
2461624.500000000, A.D. 2027-Aug-07 00:00:00.0000, -5.827180309723731E+07, -3.409590477035584E+08, -1.073235693665341E+06,
2461631.500000000, A.D. 2027-Aug-14 00:00:00.0000, -4.610967459188312E+07, -3.406159583024594E+08, -1.767619815535232E+06,
2461638.500000000, A.D. 2027-Aug-21 00:00:00.0000, -3.389244553740578E+07, -3.398657395681178E+08, -2.459889756407201E+06,
2461645.500000000, A.D. 2027-Aug-28 00:00:00.0000, -2.163394365543403E+07, -3.387015083541732E+08, -3.149161606955007E+06,
2461652.500000000, A.D. 2027-Sep-04 00:00:00.0000, -9.348598166060438E+06, -3.371167791708818E+08, -3.834522078333855E+06,
2461659.500000000, A.D. 2027-Sep-11 00:00:00.0000, 2.948559348625804E+06, -3.351055111673699E+08, -4.515029060290232E+06,
2461666.500000000, A.D. 2027-Sep-18 00:00:00.0000, 1.524189706418666E+07, -3.326621575338669E+08, -5.189712372190878E+06,
2461673.500000000, A.D. 2027-Sep-25 00:00:00.0000, 2.751518864671298E+07, -3.297817172474558E+08, -5.857574755592361E+06,
2461680.500000000, A.D. 2027-Oct-02 00:00:00.0000, 3.975162308626975E+07, -3.264597889251362E+08, -6.517593134370431E+06,
2461687.500000000, A.D. 2027-Oct-09 00:00:00.0000, 5.193381907253957E+07, -3.226926265215379E+08, -7.168720165949777E+06,
2461694.500000000, A.D. 2027-Oct-16 00:00:00.0000, 6.404384439435676E+07, -3.184771965987366E+08, -7.809886113983050E+06,
2461701.500000000, A.D. 2027-Oct-23 00:00:00.0000, 7.606324102984877E+07, -3.138112367823082E+08, -8.440001085032389E+06,
2461708.500000000, A.D. 2027-Oct-30 00:00:00.0000, 8.797305668589626E+07, -3.086933143316683E+08, -9.057957629712954E+06,
2461715.500000000, A.D. 2027-Nov-06 00:00:00.0000, 9.975388197283278E+07, -3.031228831599729E+08, -9.662633522548944E+06,
2461722.500000000, A.D. 2027-Nov-13 00:00:00.0000, 1.113858915305082E+08, -2.971003407632600E+08, -1.025289471771683E+07,
2461729.500000000, A.D. 2027-Nov-20 00:00:00.0000, 1.228488922506847E+08, -2.906270865476794E+08, -1.082759893068382E+07,
2461736.500000000, A.D. 2027-Nov-27 00:00:00.0000, 1.341223803883762E+08, -2.837055778200948E+08, -1.138559975191365E+07,
2461743.500000000, A.D. 2027-Dec-04 00:00:00.0000, 1.451856056346802E+08, -2.763393816943163E+08, -1.192575102694297E+07,
2461750.500000000, A.D. 2027-Dec-11 00:00:00.0000, 1.560176416035538E+08, -2.685332229955525E+08, -1.244691151975706E+07,
2461757.500000000, A.D. 2027-Dec-18 00:00:00.0000, 1.665974628964408E+08, -2.602930275895448E+08, -1.294794989405018E+07,
2461764.500000000, A.D. 2027-Dec-25 00:00:00.0000, 1.769040286513197E+08, -2.516259602034599E+08, -1.342775000007102E+07,
2461771.500000000, A.D. 2028-Jan-01 00:00:00.0000, 1.869163722260689E+08, -2.425404557752358E+08, -1.388521643471156E+07,
$$EOE